{"type": "FeatureCollection", "properties": {"source": "aerial.png", "note": "local tangent plane, metres; +x east, +y north; origin at image centre", "frame_m": 1200.0, "metres_per_pixel": 0.9569}, "features": [{"type": "Feature", "properties": {"kind": "river"}, "geometry": {"type": "Polygon", "coordinates": [[[-600.0, -52.6], [-600.0, -118.7], [-578.9, -113.9], [-538.8, -137.8], [-515.8, -135.9], [-485.2, -158.9], [-448.8, -158.9], [-402.9, -191.4], [-376.1, -180.9], [-348.3, -210.5], [-307.2, -207.7], [-285.2, -224.9], [-254.5, -228.7], [-237.3, -220.1], [-214.4, -233.5], [-177.0, -235.4], [-156.0, -222.0], [-125.4, -224.9], [-81.3, -203.8], [-54.5, -204.8], [-43.1, -189.5], [-7.7, -191.4], [2.9, -176.1], [-1.9, -104.3], [-10.5, -96.7], [-56.5, -113.9], [-78.5, -110.0], [-112.9, -134.0], [-135.9, -126.3], [-162.7, -136.8], [-181.8, -132.1], [-197.1, -145.5], [-235.4, -147.4], [-320.6, -126.3], [-334.0, -107.2], [-390.4, -82.3], [-414.4, -82.3], [-449.8, -56.5], [-484.2, -61.2], [-506.2, -49.8], [-566.5, -45.0], [-600.0, -52.6]]]}}, {"type": "Feature", "properties": {"kind": "river"}, "geometry": {"type": "Polygon", "coordinates": [[[599.0, 3.8], [549.3, 2.9], [501.4, -60.3], [486.1, -70.8], [459.3, -70.8], [416.3, -117.7], [395.2, -112.0], [352.2, -127.3], [302.4, -121.5], [272.7, -133.0], [222.0, -115.8], [188.5, -123.4], [154.1, -102.4], [113.9, -101.4], [103.3, -89.0], [40.2, -93.8], [31.6, -103.3], [35.4, -164.6], [61.2, -178.9], [127.3, -181.8], [142.6, -197.1], [170.3, -194.3], [201.0, -216.3], [253.6, -208.6], [287.1, -224.9], [332.1, -215.3], [373.2, -222.0], [383.7, -210.5], [408.6, -210.5], [441.1, -185.6], [467.0, -180.9], [474.6, -168.4], [544.5, -143.5], [557.9, -115.8], [577.0, -116.7], [599.0, -101.4], [599.0, 3.8]]]}}, {"type": "Feature", "properties": {"kind": "forest"}, "geometry": {"type": "Polygon", "coordinates": [[[599.0, -102.4], [577.0, -117.7], [557.9, -116.7], [544.5, -144.5], [506.2, -156.9], [514.8, -165.6], [510.0, -175.1], [494.7, -168.4], [486.1, -181.8], [469.9, -177.0], [441.1, -186.6], [415.3, -208.6], [383.7, -211.5], [369.4, -223.9], [335.9, -217.2], [329.2, -224.9], [320.6, -219.1], [271.8, -227.8], [253.6, -209.6], [206.7, -218.2], [170.3, -195.2], [139.7, -197.1], [127.3, -182.8], [61.2, -179.9], [36.4, -170.3], [45.0, -187.6], [40.2, -217.2], [62.2, -262.2], [77.5, -268.9], [97.6, -251.7], [111.0, -263.2], [124.4, -262.2], [119.6, -231.6], [126.3, -226.8], [144.5, -263.2], [120.6, -277.5], [76.6, -280.4], [90.9, -292.8], [93.8, -321.5], [108.1, -328.2], [128.2, -310.0], [150.2, -321.5], [146.4, -332.1], [102.4, -347.4], [107.2, -356.9], [84.2, -369.4], [70.8, -359.8], [61.2, -296.7], [30.6, -301.4], [21.1, -294.7], [37.3, -271.8], [24.9, -254.5], [11.5, -257.4], [28.7, -323.4], [42.1, -329.2], [41.1, -361.7], [5.7, -344.5], [16.3, -330.1], [6.7, -317.7], [-4.8, -253.6], [-27.8, -259.3], [-16.3, -267.9], [-15.3, -286.1], [-30.6, -292.8], [-34.4, -306.2], [-54.5, -303.3], [-82.3, -330.1], [-92.8, -326.3], [-103.3, -285.2], [-111.0, -308.1], [-132.1, -308.1], [-126.3, -290.9], [-139.7, -274.6], [-106.2, -263.2], [-85.2, -266.0], [-94.7, -257.4], [-90.9, -240.2], [-65.1, -242.1], [-58.4, -253.6], [-70.8, -261.2], [-30.6, -253.6], [3.8, -227.8], [5.7, -207.7], [-3.8, -189.5], [-39.2, -189.5], [-54.5, -205.7], [-86.1, -206.7], [-93.8, -215.3], [-78.5, -230.6], [-93.8, -238.3], [-112.9, -217.2], [-125.4, -225.8], [-156.0, -223.0], [-177.0, -236.4], [-214.4, -234.4], [-237.3, -221.1], [-258.4, -229.7], [-290.9, -223.9], [-307.2, -208.6], [-348.3, -211.5], [-376.1, -181.8], [-408.6, -190.4], [-428.7, -168.4], [-452.6, -158.9], [-485.2, -159.8], [-515.8, -136.8], [-538.8, -138.8], [-578.9, -114.8], [-600.0, -119.6], [-600.0, -599.0], [-535.9, -599.0], [-547.4, -586.6], [-540.7, -577.0], [-526.3, -587.6], [-534.0, -599.0], [-451.7, -599.0], [-443.1, -582.8], [-429.7, -599.0], [109.1, -599.0], [115.8, -592.3], [123.4, -599.0], [599.0, -599.0], [599.0, -407.7], [562.7, -394.3], [548.3, -354.1], [524.4, -334.0], [534.0, -307.2], [508.1, -295.7], [496.7, -278.5], [495.7, -245.9], [534.9, -206.7], [599.0, -170.3], [599.0, -102.4]]]}}, {"type": "Feature", "properties": {"kind": "forest"}, "geometry": {"type": "Polygon", "coordinates": [[[-600.0, 600.0], [-600.0, 196.2], [-584.7, 185.6], [-600.0, 171.3], [-600.0, -51.7], [-590.4, -51.7], [-593.3, -44.0], [-579.9, -36.4], [-572.2, -45.9], [-535.9, -32.5], [-523.4, -48.8], [-488.0, -59.3], [-449.8, -55.5], [-414.4, -81.3], [-334.0, -106.2], [-320.6, -125.4], [-301.4, -123.4], [-294.7, -135.9], [-257.4, -143.5], [-265.1, -134.9], [-251.7, -123.4], [-237.3, -124.4], [-221.1, -141.6], [-197.1, -144.5], [-181.8, -131.1], [-162.7, -135.9], [-134.9, -125.4], [-112.9, -133.0], [-78.5, -109.1], [-31.6, -106.2], [-10.5, -90.0], [-2.9, -69.9], [-17.2, -19.1], [-36.4, -39.2], [-45.0, -33.5], [-43.1, -16.3], [-54.5, -17.2], [-50.7, -34.4], [-80.4, -37.3], [-78.5, -55.5], [-89.0, -66.0], [-165.6, -43.1], [-169.4, -33.5], [-148.3, -23.0], [-149.3, -10.5], [-171.3, 0.0], [-203.8, -41.1], [-193.3, -48.8], [-194.3, -65.1], [-182.8, -65.1], [-167.5, -85.2], [-168.4, -100.5], [-228.7, -111.0], [-249.8, -104.3], [-255.5, -93.8], [-265.1, -96.7], [-268.9, -85.2], [-257.4, -72.7], [-270.8, -73.7], [-289.0, -41.1], [-278.5, -35.4], [-259.3, -47.8], [-271.8, -30.6], [-264.1, -22.0], [-250.7, -32.5], [-247.8, -62.2], [-234.4, -49.8], [-242.1, -23.0], [-260.3, -21.1], [-268.9, -5.7], [-254.5, -1.9], [-233.5, -12.4], [-237.3, 2.9], [-216.3, 28.7], [-190.4, 14.4], [-178.0, 31.6], [-167.5, 32.5], [-180.9, 45.0], [-174.2, 63.2], [-184.7, 63.2], [-204.8, 42.1], [-241.1, 63.2], [-244.0, 86.1], [-273.7, 99.5], [-278.5, 112.9], [-260.3, 120.6], [-251.7, 105.3], [-205.7, 89.0], [-189.5, 95.7], [-190.4, 127.3], [-195.2, 131.1], [-205.7, 114.8], [-240.2, 117.7], [-254.5, 162.7], [-226.8, 168.4], [-205.7, 157.9], [-194.3, 137.8], [-178.0, 141.6], [-167.5, 172.2], [-141.6, 178.9], [-152.2, 183.7], [-151.2, 203.8], [-171.3, 200.0], [-178.9, 223.0], [-209.6, 222.0], [-214.4, 241.1], [-184.7, 247.8], [-177.0, 225.8], [-162.7, 217.2], [-112.0, 221.1], [-103.3, 198.1], [-86.1, 213.4], [-66.0, 201.0], [-80.4, 243.1], [-45.9, 247.8], [-53.6, 295.7], [-36.4, 317.7], [-24.9, 305.3], [-14.4, 314.8], [2.9, 306.2], [-13.4, 288.0], [-33.5, 281.3], [-29.7, 262.2], [-10.5, 258.4], [-38.3, 241.1], [-32.5, 229.7], [-23.9, 242.1], [2.9, 251.7], [10.5, 232.5], [20.1, 251.7], [45.9, 232.5], [60.3, 241.1], [84.2, 231.6], [118.7, 274.6], [90.9, 281.3], [90.0, 259.3], [80.4, 255.5], [64.1, 274.6], [78.5, 292.8], [66.0, 296.7], [63.2, 310.0], [90.0, 322.5], [101.4, 299.5], [132.1, 290.0], [120.6, 326.3], [133.0, 339.7], [148.3, 322.5], [166.5, 343.5], [132.1, 369.4], [144.5, 380.9], [163.6, 373.2], [151.2, 391.4], [169.4, 411.5], [197.1, 398.1], [185.6, 417.2], [200.0, 434.4], [216.3, 419.1], [227.8, 423.9], [226.8, 442.1], [214.4, 439.2], [206.7, 450.7], [223.9, 475.6], [228.7, 463.2], [244.0, 460.3], [231.6, 477.5], [244.0, 490.0], [258.4, 478.5], [266.0, 490.0], [253.6, 503.3], [258.4, 514.8], [280.4, 500.5], [304.3, 504.3], [306.2, 523.4], [288.0, 539.7], [291.9, 555.0], [274.6, 568.4], [286.1, 586.6], [307.2, 573.2], [304.3, 559.8], [318.7, 549.3], [347.4, 544.5], [342.6, 524.4], [360.8, 541.6], [369.4, 532.1], [347.4, 503.3], [344.5, 472.7], [326.3, 471.8], [337.8, 460.3], [294.7, 443.1], [290.0, 429.7], [297.6, 414.4], [277.5, 400.0], [270.8, 416.3], [259.3, 417.2], [245.9, 401.9], [242.1, 342.6], [230.6, 334.9], [224.9, 351.2], [218.2, 348.3], [218.2, 339.7], [245.0, 321.5], [230.6, 306.2], [211.5, 314.8], [177.0, 294.7], [172.2, 283.3], [181.8, 269.9], [146.4, 255.5], [138.8, 231.6], [151.2, 223.0], [122.5, 195.2], [152.2, 178.9], [152.2, 211.5], [172.2, 221.1], [182.8, 216.3], [192.3, 227.8], [211.5, 206.7], [222.0, 218.2], [248.8, 214.4], [254.5, 193.3], [247.8, 179.9], [286.1, 176.1], [309.1, 159.8], [272.7, 151.2], [276.6, 128.2], [257.4, 123.4], [255.5, 109.1], [242.1, 128.2], [224.9, 126.3], [218.2, 115.8], [223.0, 79.4], [237.3, 77.5], [246.9, 87.1], [254.5, 80.4], [256.5, 38.3], [246.9, 26.8], [220.1, 37.3], [190.4, 20.1], [118.7, 28.7], [101.4, 17.2], [106.2, -6.7], [92.8, -14.4], [82.3, -5.7], [72.7, -25.8], [64.1, -18.2], [67.9, 16.3], [30.6, 20.1], [25.8, -14.4], [38.3, -37.3], [53.6, -43.1], [46.9, -53.6], [28.7, -57.4], [38.3, -81.3], [32.5, -95.7], [103.3, -88.0], [113.9, -100.5], [154.1, -101.4], [188.5, -122.5], [222.0, -114.8], [268.9, -131.1], [266.0, -121.5], [286.1, -110.0], [295.7, -118.7], [282.3, -130.1], [302.4, -120.6], [383.7, -120.6], [380.9, -111.0], [401.9, -95.7], [423.9, -103.3], [422.0, -88.0], [434.4, -75.6], [454.5, -78.5], [478.5, -61.2], [497.6, -60.3], [490.9, -46.9], [502.4, -38.3], [500.5, -29.7], [539.7, -10.5], [545.5, 5.7], [599.0, 19.1], [599.0, 281.3], [517.7, 326.3], [536.8, 380.9], [599.0, 487.1], [599.0, 600.0], [586.6, 590.4], [559.8, 600.0], [553.1, 584.7], [541.6, 588.5], [533.0, 575.1], [514.8, 600.0], [394.3, 600.0], [377.0, 577.0], [370.3, 586.6], [378.0, 600.0], [248.8, 600.0], [240.2, 585.6], [232.5, 600.0], [-600.0, 600.0]]]}}, {"type": "Feature", "properties": {"kind": "field"}, "geometry": {"type": "Polygon", "coordinates": [[[97.6, -549.3], [100.5, -581.8], [115.8, -587.6], [116.7, -566.5], [104.3, -549.3], [97.6, -549.3]]]}}, {"type": "Feature", "properties": {"kind": "field"}, "geometry": {"type": "Polygon", "coordinates": [[[547.4, -423.9], [531.1, -402.9], [523.4, -403.8], [513.9, -394.3], [445.9, -407.7], [403.8, -424.9], [398.1, -437.3], [371.3, -450.7], [338.8, -450.7], [293.8, -472.7], [283.3, -472.7], [259.3, -497.6], [237.3, -493.8], [201.9, -502.4], [198.1, -517.7], [235.4, -569.4], [242.1, -588.5], [262.2, -598.1], [303.3, -570.3], [318.7, -566.5], [351.2, -538.8], [400.0, -520.6], [406.7, -506.2], [425.8, -506.2], [432.5, -497.6], [445.9, -495.7], [461.2, -476.6], [499.5, -464.1], [514.8, -450.7], [524.4, -451.7], [548.3, -432.5], [547.4, -423.9]]]}}, {"type": "Feature", "properties": {"kind": "field"}, "geometry": {"type": "Polygon", "coordinates": [[[229.7, -248.8], [243.1, -280.4], [254.5, -271.8], [272.7, -272.7], [288.0, -259.3], [273.7, -245.9], [241.1, -243.1], [229.7, -248.8]]]}}, {"type": "Feature", "properties": {"kind": "field"}, "geometry": {"type": "Polygon", "coordinates": [[[599.0, -171.3], [534.9, -207.7], [496.7, -242.1], [501.4, -250.7], [497.6, -278.5], [505.3, -291.9], [534.9, -307.2], [525.4, -334.0], [549.3, -354.1], [549.3, -366.5], [563.6, -394.3], [593.3, -408.6], [599.0, -406.7], [599.0, -319.6], [592.3, -319.6], [599.0, -316.7], [599.0, -171.3]]]}}, {"type": "Feature", "properties": {"kind": "field"}, "geometry": {"type": "Polygon", "coordinates": [[[272.7, 9.6], [268.9, -10.5], [279.4, -29.7], [297.6, -28.7], [332.1, -42.1], [343.5, -37.3], [346.4, -8.6], [340.7, 13.4], [284.2, 17.2], [272.7, 9.6]]]}}, {"type": "Feature", "properties": {"kind": "field"}, "geometry": {"type": "Polygon", "coordinates": [[[214.4, 111.0], [206.7, 112.9], [182.8, 82.3], [175.1, 87.1], [171.3, 101.4], [156.9, 93.8], [154.1, 67.0], [166.5, 76.6], [185.6, 77.5], [197.1, 68.9], [206.7, 73.7], [198.1, 81.3], [197.1, 91.9], [213.4, 97.6], [214.4, 111.0]]]}}, {"type": "Feature", "properties": {"kind": "field"}, "geometry": {"type": "Polygon", "coordinates": [[[599.0, 486.1], [569.4, 436.4], [563.6, 414.4], [537.8, 380.9], [529.2, 345.5], [518.7, 331.1], [535.9, 311.0], [552.2, 312.0], [560.8, 300.5], [599.0, 282.3], [599.0, 405.7], [588.5, 404.8], [599.0, 407.7], [599.0, 486.1]]]}}, {"type": "Feature", "properties": {"kind": "field"}, "geometry": {"type": "Polygon", "coordinates": [[[519.6, 536.8], [503.3, 542.6], [489.0, 524.4], [504.3, 519.6], [519.6, 536.8]]]}}, {"type": "Feature", "properties": {"kind": "field"}, "geometry": {"type": "Polygon", "coordinates": [[[533.0, 576.1], [541.6, 589.5], [553.1, 585.6], [558.9, 600.0], [516.7, 600.0], [533.0, 576.1]]]}}, {"type": "Feature", "properties": {"kind": "road"}, "geometry": {"type": "LineString", "coordinates": [[161.7, 298.6], [77.5, 172.2], [46.9, 152.2], [-14.4, 99.5], [-9.6, 66.0], [13.4, 54.5], [37.3, 106.2], [33.5, 57.4]]}}, {"type": "Feature", "properties": {"kind": "building", "bearingDeg": 0.0, "length": 57.4, "depth": 27.3, "area": 456.9}, "geometry": {"type": "Point", "coordinates": [-132.5, 163.6]}}, {"type": "Feature", "properties": {"kind": "building", "bearingDeg": 93.4, "length": 50.2, "depth": 25.7, "area": 444.1}, "geometry": {"type": "Point", "coordinates": [173.2, 471.7]}}, {"type": "Feature", "properties": {"kind": "building", "bearingDeg": 90.0, "length": 47.4, "depth": 17.2, "area": 381.9}, "geometry": {"type": "Point", "coordinates": [145.0, 126.3]}}, {"type": "Feature", "properties": {"kind": "building", "bearingDeg": 175.9, "length": 54.6, "depth": 24.0, "area": 471.6}, "geometry": {"type": "Point", "coordinates": [-87.1, 194.3]}}, {"type": "Feature", "properties": {"kind": "building", "bearingDeg": 90.0, "length": 45.9, "depth": 10.1, "area": 211.5}, "geometry": {"type": "Point", "coordinates": [141.6, 96.2]}}, {"type": "Feature", "properties": {"kind": "building", "bearingDeg": 90.0, "length": 45.9, "depth": 14.4, "area": 282.0}, "geometry": {"type": "Point", "coordinates": [140.7, 88.0]}}, {"type": "Feature", "properties": {"kind": "building", "bearingDeg": 36.3, "length": 34.8, "depth": 33.3, "area": 331.5}, "geometry": {"type": "Point", "coordinates": [255.3, 463.7]}}, {"type": "Feature", "properties": {"kind": "building", "bearingDeg": 111.8, "length": 50.7, "depth": 45.0, "area": 686.8}, "geometry": {"type": "Point", "coordinates": [263.9, 341.6]}}, {"type": "Feature", "properties": {"kind": "building", "bearingDeg": 175.6, "length": 67.8, "depth": 32.5, "area": 680.4}, "geometry": {"type": "Point", "coordinates": [208.1, 335.5]}}, {"type": "Feature", "properties": {"kind": "building", "bearingDeg": 90.0, "length": 43.0, "depth": 11.6, "area": 223.4}, "geometry": {"type": "Point", "coordinates": [145.5, 112.0]}}, {"type": "Feature", "properties": {"kind": "building", "bearingDeg": 175.9, "length": 44.7, "depth": 27.3, "area": 439.6}, "geometry": {"type": "Point", "coordinates": [-70.4, 186.5]}}, {"type": "Feature", "properties": {"kind": "building", "bearingDeg": 90.0, "length": 41.7, "depth": 5.7, "area": 117.2}, "geometry": {"type": "Point", "coordinates": [145.0, 106.2]}}, {"type": "Feature", "properties": {"kind": "building", "bearingDeg": 171.5, "length": 47.8, "depth": 41.2, "area": 676.7}, "geometry": {"type": "Point", "coordinates": [-116.0, 25.5]}}, {"type": "Feature", "properties": {"kind": "building", "bearingDeg": 90.0, "length": 44.5, "depth": 41.7, "area": 641.0}, "geometry": {"type": "Point", "coordinates": [-0.5, 183.3]}}, {"type": "Feature", "properties": {"kind": "building", "bearingDeg": 135.0, "length": 47.7, "depth": 30.5, "area": 425.8}, "geometry": {"type": "Point", "coordinates": [215.1, 405.5]}}, {"type": "Feature", "properties": {"kind": "building", "bearingDeg": 90.0, "length": 38.7, "depth": 17.2, "area": 204.2}, "geometry": {"type": "Point", "coordinates": [287.6, 449.8]}}, {"type": "Feature", "properties": {"kind": "building", "bearingDeg": 90.0, "length": 38.7, "depth": 11.6, "area": 163.0}, "geometry": {"type": "Point", "coordinates": [276.1, 329.2]}}, {"type": "Feature", "properties": {"kind": "building", "bearingDeg": 39.3, "length": 47.1, "depth": 37.5, "area": 502.7}, "geometry": {"type": "Point", "coordinates": [62.7, 380.9]}}, {"type": "Feature", "properties": {"kind": "building", "bearingDeg": 94.1, "length": 43.2, "depth": 29.7, "area": 388.3}, "geometry": {"type": "Point", "coordinates": [277.1, 315.5]}}, {"type": "Feature", "properties": {"kind": "building", "bearingDeg": 90.0, "length": 44.5, "depth": 34.5, "area": 543.0}, "geometry": {"type": "Point", "coordinates": [-136.4, 191.4]}}, {"type": "Feature", "properties": {"kind": "building", "bearingDeg": 95.2, "length": 45.2, "depth": 29.8, "area": 435.9}, "geometry": {"type": "Point", "coordinates": [166.9, 391.3]}}, {"type": "Feature", "properties": {"kind": "building", "bearingDeg": 8.1, "length": 45.9, "depth": 41.2, "area": 664.8}, "geometry": {"type": "Point", "coordinates": [-44.5, 176.8]}}, {"type": "Feature", "properties": {"kind": "building", "bearingDeg": 97.1, "length": 39.2, "depth": 31.2, "area": 413.9}, "geometry": {"type": "Point", "coordinates": [284.6, 411.0]}}, {"type": "Feature", "properties": {"kind": "building", "bearingDeg": 135.0, "length": 43.7, "depth": 29.4, "area": 514.6}, "geometry": {"type": "Point", "coordinates": [200.5, 420.1]}}, {"type": "Feature", "properties": {"kind": "building", "bearingDeg": 99.5, "length": 39.9, "depth": 27.9, "area": 407.5}, "geometry": {"type": "Point", "coordinates": [92.0, 289.7]}}, {"type": "Feature", "properties": {"kind": "building", "bearingDeg": 175.2, "length": 46.5, "depth": 42.0, "area": 652.9}, "geometry": {"type": "Point", "coordinates": [226.1, 366.2]}}, {"type": "Feature", "properties": {"kind": "building", "bearingDeg": 58.0, "length": 51.8, "depth": 35.2, "area": 634.6}, "geometry": {"type": "Point", "coordinates": [150.2, 364.4]}}, {"type": "Feature", "properties": {"kind": "building", "bearingDeg": 18.4, "length": 41.7, "depth": 26.8, "area": 382.8}, "geometry": {"type": "Point", "coordinates": [195.3, 318.0]}}, {"type": "Feature", "properties": {"kind": "building", "bearingDeg": 175.6, "length": 42.8, "depth": 31.7, "area": 424.0}, "geometry": {"type": "Point", "coordinates": [233.3, 320.0]}}, {"type": "Feature", "properties": {"kind": "building", "bearingDeg": 0.0, "length": 41.7, "depth": 7.2, "area": 139.2}, "geometry": {"type": "Point", "coordinates": [220.6, 323.0]}}, {"type": "Feature", "properties": {"kind": "building", "bearingDeg": 7.6, "length": 45.5, "depth": 42.8, "area": 621.8}, "geometry": {"type": "Point", "coordinates": [-93.9, -50.5]}}, {"type": "Feature", "properties": {"kind": "building", "bearingDeg": 53.1, "length": 31.8, "depth": 21.0, "area": 233.5}, "geometry": {"type": "Point", "coordinates": [96.2, 233.4]}}, {"type": "Feature", "properties": {"kind": "building", "bearingDeg": 60.3, "length": 39.8, "depth": 36.8, "area": 492.7}, "geometry": {"type": "Point", "coordinates": [-95.9, 13.0]}}, {"type": "Feature", "properties": {"kind": "building", "bearingDeg": 90.0, "length": 38.7, "depth": 23.0, "area": 340.7}, "geometry": {"type": "Point", "coordinates": [65.6, 363.6]}}, {"type": "Feature", "properties": {"kind": "building", "bearingDeg": 90.0, "length": 53.1, "depth": 24.5, "area": 449.6}, "geometry": {"type": "Point", "coordinates": [3.3, 157.4]}}, {"type": "Feature", "properties": {"kind": "building", "bearingDeg": 101.3, "length": 46.8, "depth": 27.9, "area": 418.5}, "geometry": {"type": "Point", "coordinates": [97.1, 142.0]}}, {"type": "Feature", "properties": {"kind": "building", "bearingDeg": 5.2, "length": 45.0, "depth": 26.4, "area": 437.7}, "geometry": {"type": "Point", "coordinates": [192.1, 211.8]}}, {"type": "Feature", "properties": {"kind": "building", "bearingDeg": 90.0, "length": 35.8, "depth": 24.5, "area": 354.4}, "geometry": {"type": "Point", "coordinates": [33.0, 293.3]}}, {"type": "Feature", "properties": {"kind": "building", "bearingDeg": 90.0, "length": 37.3, "depth": 34.5, "area": 454.2}, "geometry": {"type": "Point", "coordinates": [253.6, 285.2]}}, {"type": "Feature", "properties": {"kind": "building", "bearingDeg": 4.4, "length": 40.8, "depth": 38.1, "area": 545.8}, "geometry": {"type": "Point", "coordinates": [-9.8, 4.1]}}, {"type": "Feature", "properties": {"kind": "building", "bearingDeg": 0.0, "length": 40.2, "depth": 34.5, "area": 450.5}, "geometry": {"type": "Point", "coordinates": [143.5, 291.9]}}, {"type": "Feature", "properties": {"kind": "building", "bearingDeg": 72.2, "length": 48.6, "depth": 44.2, "area": 685.9}, "geometry": {"type": "Point", "coordinates": [-67.6, 125.8]}}, {"type": "Feature", "properties": {"kind": "building", "bearingDeg": 135.0, "length": 31.5, "depth": 24.3, "area": 292.1}, "geometry": {"type": "Point", "coordinates": [242.3, 477.8]}}, {"type": "Feature", "properties": {"kind": "building", "bearingDeg": 90.0, "length": 15.8, "depth": 8.6, "area": 51.3}, "geometry": {"type": "Point", "coordinates": [244.5, 470.8]}}, {"type": "Feature", "properties": {"kind": "building", "bearingDeg": 63.4, "length": 39.2, "depth": 21.9, "area": 282.0}, "geometry": {"type": "Point", "coordinates": [178.0, 401.4]}}, {"type": "Feature", "properties": {"kind": "building", "bearingDeg": 90.0, "length": 31.7, "depth": 5.7, "area": 82.4}, "geometry": {"type": "Point", "coordinates": [172.2, 379.9]}}, {"type": "Feature", "properties": {"kind": "building", "bearingDeg": 170.0, "length": 35.4, "depth": 33.0, "area": 363.5}, "geometry": {"type": "Point", "coordinates": [128.4, 282.2]}}, {"type": "Feature", "properties": {"kind": "building", "bearingDeg": 45.0, "length": 28.3, "depth": 19.4, "area": 176.7}, "geometry": {"type": "Point", "coordinates": [102.2, 27.5]}}, {"type": "Feature", "properties": {"kind": "building", "bearingDeg": 86.2, "length": 47.1, "depth": 26.2, "area": 394.7}, "geometry": {"type": "Point", "coordinates": [-27.1, -13.3]}}, {"type": "Feature", "properties": {"kind": "building", "bearingDeg": 0.0, "length": 31.7, "depth": 21.6, "area": 282.0}, "geometry": {"type": "Point", "coordinates": [-72.2, -26.8]}}, {"type": "Feature", "properties": {"kind": "building", "bearingDeg": 0.0, "length": 33.0, "depth": 20.1, "area": 269.2}, "geometry": {"type": "Point", "coordinates": [-57.4, -27.3]}}, {"type": "Feature", "properties": {"kind": "building", "bearingDeg": 65.2, "length": 41.1, "depth": 33.6, "area": 461.5}, "geometry": {"type": "Point", "coordinates": [320.7, 385.1]}}, {"type": "Feature", "properties": {"kind": "building", "bearingDeg": 52.6, "length": 45.0, "depth": 29.8, "area": 383.7}, "geometry": {"type": "Point", "coordinates": [206.0, 391.8]}}, {"type": "Feature", "properties": {"kind": "building", "bearingDeg": 144.0, "length": 40.3, "depth": 34.2, "area": 479.8}, "geometry": {"type": "Point", "coordinates": [161.9, 319.1]}}, {"type": "Feature", "properties": {"kind": "building", "bearingDeg": 0.0, "length": 34.5, "depth": 30.2, "area": 389.2}, "geometry": {"type": "Point", "coordinates": [139.2, 316.7]}}, {"type": "Feature", "properties": {"kind": "building", "bearingDeg": 90.0, "length": 34.5, "depth": 24.5, "area": 280.2}, "geometry": {"type": "Point", "coordinates": [32.5, 315.3]}}, {"type": "Feature", "properties": {"kind": "building", "bearingDeg": 90.0, "length": 30.2, "depth": 7.2, "area": 101.6}, "geometry": {"type": "Point", "coordinates": [32.1, 303.8]}}, {"type": "Feature", "properties": {"kind": "building", "bearingDeg": 157.4, "length": 31.2, "depth": 22.8, "area": 261.9}, "geometry": {"type": "Point", "coordinates": [203.8, 199.3]}}, {"type": "Feature", "properties": {"kind": "building", "bearingDeg": 0.0, "length": 34.5, "depth": 30.2, "area": 370.9}, "geometry": {"type": "Point", "coordinates": [336.4, 337.8]}}, {"type": "Feature", "properties": {"kind": "building", "bearingDeg": 0.0, "length": 35.8, "depth": 27.3, "area": 364.5}, "geometry": {"type": "Point", "coordinates": [257.9, 235.9]}}, {"type": "Feature", "properties": {"kind": "building", "bearingDeg": 175.2, "length": 40.7, "depth": 27.0, "area": 392.8}, "geometry": {"type": "Point", "coordinates": [17.3, -0.4]}}, {"type": "Feature", "properties": {"kind": "building", "bearingDeg": 90.0, "length": 28.7, "depth": 18.6, "area": 217.9}, "geometry": {"type": "Point", "coordinates": [-90.0, -30.1]}}, {"type": "Feature", "properties": {"kind": "building", "bearingDeg": 95.7, "length": 31.8, "depth": 18.9, "area": 224.4}, "geometry": {"type": "Point", "coordinates": [38.8, 279.0]}}, {"type": "Feature", "properties": {"kind": "building", "bearingDeg": 90.0, "length": 33.0, "depth": 27.3, "area": 280.2}, "geometry": {"type": "Point", "coordinates": [-130.6, 209.1]}}, {"type": "Feature", "properties": {"kind": "building", "bearingDeg": 0.0, "length": 27.3, "depth": 20.1, "area": 237.2}, "geometry": {"type": "Point", "coordinates": [112.0, 289.5]}}, {"type": "Feature", "properties": {"kind": "building", "bearingDeg": 90.0, "length": 23.0, "depth": 17.2, "area": 126.4}, "geometry": {"type": "Point", "coordinates": [127.3, 258.4]}}, {"type": "Feature", "properties": {"kind": "building", "bearingDeg": 18.4, "length": 35.8, "depth": 31.3, "area": 423.1}, "geometry": {"type": "Point", "coordinates": [-36.9, 253.9]}}, {"type": "Feature", "properties": {"kind": "building", "bearingDeg": 0.0, "length": 30.2, "depth": 18.6, "area": 250.0}, "geometry": {"type": "Point", "coordinates": [-112.4, 210.0]}}, {"type": "Feature", "properties": {"kind": "building", "bearingDeg": 90.0, "length": 28.7, "depth": 18.6, "area": 220.7}, "geometry": {"type": "Point", "coordinates": [-55.5, 197.6]}}, {"type": "Feature", "properties": {"kind": "building", "bearingDeg": 0.0, "length": 24.5, "depth": 10.1, "area": 111.7}, "geometry": {"type": "Point", "coordinates": [-61.7, 178.5]}}, {"type": "Feature", "properties": {"kind": "building", "bearingDeg": 90.0, "length": 25.8, "depth": 8.6, "area": 106.2}, "geometry": {"type": "Point", "coordinates": [-36.4, -23.9]}}, {"type": "Feature", "properties": {"kind": "building", "bearingDeg": 90.0, "length": 23.0, "depth": 15.8, "area": 148.3}, "geometry": {"type": "Point", "coordinates": [-36.4, -33.0]}}, {"type": "Feature", "properties": {"kind": "building", "bearingDeg": 45.0, "length": 46.7, "depth": 25.3, "area": 427.6}, "geometry": {"type": "Point", "coordinates": [299.8, 356.2]}}, {"type": "Feature", "properties": {"kind": "building", "bearingDeg": 50.7, "length": 35.7, "depth": 31.2, "area": 322.3}, "geometry": {"type": "Point", "coordinates": [171.0, 276.6]}}, {"type": "Feature", "properties": {"kind": "building", "bearingDeg": 90.0, "length": 27.3, "depth": 25.8, "area": 278.4}, "geometry": {"type": "Point", "coordinates": [-60.8, 95.7]}}, {"type": "Feature", "properties": {"kind": "building", "bearingDeg": 0.0, "length": 28.7, "depth": 21.6, "area": 219.8}, "geometry": {"type": "Point", "coordinates": [304.8, 393.3]}}, {"type": "Feature", "properties": {"kind": "building", "bearingDeg": 135.0, "length": 29.4, "depth": 27.5, "area": 330.6}, "geometry": {"type": "Point", "coordinates": [76.1, 277.5]}}, {"type": "Feature", "properties": {"kind": "building", "bearingDeg": 90.0, "length": 25.8, "depth": 15.8, "area": 156.6}, "geometry": {"type": "Point", "coordinates": [-146.4, 11.0]}}, {"type": "Feature", "properties": {"kind": "building", "bearingDeg": 45.0, "length": 30.5, "depth": 22.4, "area": 243.6}, "geometry": {"type": "Point", "coordinates": [90.4, 59.8]}}, {"type": "Feature", "properties": {"kind": "building", "bearingDeg": 90.0, "length": 27.3, "depth": 21.6, "area": 213.4}, "geometry": {"type": "Point", "coordinates": [232.1, 343.1]}}, {"type": "Feature", "properties": {"kind": "building", "bearingDeg": 81.9, "length": 22.4, "depth": 14.5, "area": 137.4}, "geometry": {"type": "Point", "coordinates": [74.5, -7.6]}}, {"type": "Feature", "properties": {"kind": "building", "bearingDeg": 161.6, "length": 23.1, "depth": 19.5, "area": 172.2}, "geometry": {"type": "Point", "coordinates": [261.1, 507.1]}}, {"type": "Feature", "properties": {"kind": "building", "bearingDeg": 163.3, "length": 16.4, "depth": 15.1, "area": 72.3}, "geometry": {"type": "Point", "coordinates": [271.2, 504.3]}}, {"type": "Feature", "properties": {"kind": "building", "bearingDeg": 78.7, "length": 24.2, "depth": 18.0, "area": 152.0}, "geometry": {"type": "Point", "coordinates": [159.8, 267.9]}}, {"type": "Feature", "properties": {"kind": "building", "bearingDeg": 68.2, "length": 25.7, "depth": 21.0, "area": 200.5}, "geometry": {"type": "Point", "coordinates": [196.7, 239.1]}}, {"type": "Feature", "properties": {"kind": "building", "bearingDeg": 82.9, "length": 22.8, "depth": 18.5, "area": 156.6}, "geometry": {"type": "Point", "coordinates": [72.1, -18.6]}}, {"type": "Feature", "properties": {"kind": "building", "bearingDeg": 90.0, "length": 20.1, "depth": 18.6, "area": 121.8}, "geometry": {"type": "Point", "coordinates": [183.7, 311.5]}}, {"type": "Feature", "properties": {"kind": "building", "bearingDeg": 90.0, "length": 25.8, "depth": 14.4, "area": 134.6}, "geometry": {"type": "Point", "coordinates": [180.9, 300.5]}}, {"type": "Feature", "properties": {"kind": "building", "bearingDeg": 11.3, "length": 23.7, "depth": 22.5, "area": 202.4}, "geometry": {"type": "Point", "coordinates": [48.0, 266.2]}}, {"type": "Feature", "properties": {"kind": "building", "bearingDeg": 171.9, "length": 23.4, "depth": 19.5, "area": 158.4}, "geometry": {"type": "Point", "coordinates": [177.4, 247.7]}}, {"type": "Feature", "properties": {"kind": "building", "bearingDeg": 172.9, "length": 24.9, "depth": 10.4, "area": 95.2}, "geometry": {"type": "Point", "coordinates": [187.1, 244.0]}}, {"type": "Feature", "properties": {"kind": "building", "bearingDeg": 135.0, "length": 24.3, "depth": 19.4, "area": 190.5}, "geometry": {"type": "Point", "coordinates": [104.1, 408.9]}}, {"type": "Feature", "properties": {"kind": "building", "bearingDeg": 140.2, "length": 50.8, "depth": 19.8, "area": 300.4}, "geometry": {"type": "Point", "coordinates": [323.2, 316.2]}}, {"type": "Feature", "properties": {"kind": "building", "bearingDeg": 135.0, "length": 21.3, "depth": 21.3, "area": 176.7}, "geometry": {"type": "Point", "coordinates": [13.4, 85.6]}}, {"type": "Feature", "properties": {"kind": "building", "bearingDeg": 166.0, "length": 21.6, "depth": 19.5, "area": 160.3}, "geometry": {"type": "Point", "coordinates": [93.3, 80.3]}}, {"type": "Feature", "properties": {"kind": "building", "bearingDeg": 0.0, "length": 37.3, "depth": 23.0, "area": 267.4}, "geometry": {"type": "Point", "coordinates": [210.5, 489.0]}}, {"type": "Feature", "properties": {"kind": "building", "bearingDeg": 90.0, "length": 18.6, "depth": 14.4, "area": 105.3}, "geometry": {"type": "Point", "coordinates": [-34.9, 157.9]}}, {"type": "Feature", "properties": {"kind": "building", "bearingDeg": 0.0, "length": 21.6, "depth": 7.2, "area": 70.5}, "geometry": {"type": "Point", "coordinates": [5.3, -2.4]}}, {"type": "Feature", "properties": {"kind": "building", "bearingDeg": 90.0, "length": 25.8, "depth": 20.1, "area": 172.2}, "geometry": {"type": "Point", "coordinates": [239.2, 385.6]}}, {"type": "Feature", "properties": {"kind": "building", "bearingDeg": 0.0, "length": 21.6, "depth": 20.1, "area": 154.8}, "geometry": {"type": "Point", "coordinates": [-4.8, 24.4]}}, {"type": "Feature", "properties": {"kind": "building", "bearingDeg": 45.0, "length": 23.4, "depth": 20.2, "area": 178.6}, "geometry": {"type": "Point", "coordinates": [106.5, 345.2]}}, {"type": "Feature", "properties": {"kind": "building", "bearingDeg": 0.0, "length": 23.0, "depth": 11.6, "area": 97.1}, "geometry": {"type": "Point", "coordinates": [125.4, 323.4]}}, {"type": "Feature", "properties": {"kind": "building", "bearingDeg": 40.6, "length": 19.8, "depth": 19.5, "area": 145.6}, "geometry": {"type": "Point", "coordinates": [-16.6, 148.5]}}, {"type": "Feature", "properties": {"kind": "building", "bearingDeg": 0.0, "length": 18.6, "depth": 12.9, "area": 99.8}, "geometry": {"type": "Point", "coordinates": [-22.5, 16.7]}}, {"type": "Feature", "properties": {"kind": "building", "bearingDeg": 135.0, "length": 16.2, "depth": 16.2, "area": 107.1}, "geometry": {"type": "Point", "coordinates": [223.9, 468.9]}}, {"type": "Feature", "properties": {"kind": "building", "bearingDeg": 0.0, "length": 17.2, "depth": 14.4, "area": 102.6}, "geometry": {"type": "Point", "coordinates": [332.1, 462.2]}}, {"type": "Feature", "properties": {"kind": "building", "bearingDeg": 45.0, "length": 19.4, "depth": 18.3, "area": 137.4}, "geometry": {"type": "Point", "coordinates": [83.0, 262.4]}}, {"type": "Feature", "properties": {"kind": "building", "bearingDeg": 78.7, "length": 20.9, "depth": 19.2, "area": 141.9}, "geometry": {"type": "Point", "coordinates": [57.1, 21.3]}}, {"type": "Feature", "properties": {"kind": "building", "bearingDeg": 90.0, "length": 24.5, "depth": 12.9, "area": 107.1}, "geometry": {"type": "Point", "coordinates": [258.9, 301.9]}}, {"type": "Feature", "properties": {"kind": "building", "bearingDeg": 170.5, "length": 20.7, "depth": 19.4, "area": 143.8}, "geometry": {"type": "Point", "coordinates": [180.8, 90.6]}}, {"type": "Feature", "properties": {"kind": "building", "bearingDeg": 114.0, "length": 27.2, "depth": 16.4, "area": 156.6}, "geometry": {"type": "Point", "coordinates": [-95.4, 232.7]}}, {"type": "Feature", "properties": {"kind": "building", "bearingDeg": 97.1, "length": 23.9, "depth": 17.4, "area": 151.1}, "geometry": {"type": "Point", "coordinates": [70.8, 150.1]}}, {"type": "Feature", "properties": {"kind": "building", "bearingDeg": 45.0, "length": 22.4, "depth": 17.2, "area": 140.1}, "geometry": {"type": "Point", "coordinates": [78.2, 100.2]}}, {"type": "Feature", "properties": {"kind": "building", "bearingDeg": 90.0, "length": 15.8, "depth": 11.6, "area": 82.4}, "geometry": {"type": "Point", "coordinates": [-16.7, 28.7]}}, {"type": "Feature", "properties": {"kind": "building", "bearingDeg": 170.5, "length": 17.4, "depth": 13.2, "area": 90.7}, "geometry": {"type": "Point", "coordinates": [304.9, 447.7]}}, {"type": "Feature", "properties": {"kind": "building", "bearingDeg": 90.0, "length": 17.2, "depth": 14.4, "area": 102.6}, "geometry": {"type": "Point", "coordinates": [-19.1, 43.1]}}, {"type": "Feature", "properties": {"kind": "building", "bearingDeg": 0.0, "length": 18.6, "depth": 15.8, "area": 118.1}, "geometry": {"type": "Point", "coordinates": [26.3, -21.5]}}, {"type": "Feature", "properties": {"kind": "building", "bearingDeg": 135.0, "length": 18.3, "depth": 14.2, "area": 98.0}, "geometry": {"type": "Point", "coordinates": [218.2, 445.0]}}, {"type": "Feature", "properties": {"kind": "building", "bearingDeg": 90.0, "length": 15.8, "depth": 14.4, "area": 82.4}, "geometry": {"type": "Point", "coordinates": [-56.9, 110.0]}}, {"type": "Feature", "properties": {"kind": "building", "bearingDeg": 77.0, "length": 24.0, "depth": 15.1, "area": 134.6}, "geometry": {"type": "Point", "coordinates": [43.1, 28.5]}}, {"type": "Feature", "properties": {"kind": "building", "bearingDeg": 45.0, "length": 24.3, "depth": 15.1, "area": 126.4}, "geometry": {"type": "Point", "coordinates": [83.5, 389.7]}}, {"type": "Feature", "properties": {"kind": "building", "bearingDeg": 90.0, "length": 12.9, "depth": 11.6, "area": 65.0}, "geometry": {"type": "Point", "coordinates": [140.2, 245.0]}}, {"type": "Feature", "properties": {"kind": "building", "bearingDeg": 59.0, "length": 9.9, "depth": 7.4, "area": 27.5}, "geometry": {"type": "Point", "coordinates": [138.6, 239.7]}}, {"type": "Feature", "properties": {"kind": "building", "bearingDeg": 45.0, "length": 23.4, "depth": 14.2, "area": 109.0}, "geometry": {"type": "Point", "coordinates": [63.9, 114.1]}}, {"type": "Feature", "properties": {"kind": "building", "bearingDeg": 149.0, "length": 27.8, "depth": 14.2, "area": 119.0}, "geometry": {"type": "Point", "coordinates": [202.4, 89.8]}}, {"type": "Feature", "properties": {"kind": "building", "bearingDeg": 90.0, "length": 12.9, "depth": 5.7, "area": 42.1}, "geometry": {"type": "Point", "coordinates": [-17.7, 35.4]}}, {"type": "Feature", "properties": {"kind": "building", "bearingDeg": 90.0, "length": 14.4, "depth": 12.9, "area": 76.9}, "geometry": {"type": "Point", "coordinates": [24.9, 22.5]}}, {"type": "Feature", "properties": {"kind": "building", "bearingDeg": 148.0, "length": 21.8, "depth": 11.9, "area": 95.2}, "geometry": {"type": "Point", "coordinates": [142.1, 255.0]}}, {"type": "Feature", "properties": {"kind": "building", "bearingDeg": 0.0, "length": 14.4, "depth": 5.7, "area": 37.5}, "geometry": {"type": "Point", "coordinates": [24.9, 156.9]}}, {"type": "Feature", "properties": {"kind": "building", "bearingDeg": 0.0, "length": 12.9, "depth": 12.9, "area": 65.0}, "geometry": {"type": "Point", "coordinates": [32.1, 156.5]}}, {"type": "Feature", "properties": {"kind": "building", "bearingDeg": 104.0, "length": 13.6, "depth": 10.5, "area": 58.6}, "geometry": {"type": "Point", "coordinates": [29.4, -31.2]}}, {"type": "Feature", "properties": {"kind": "building", "bearingDeg": 90.0, "length": 10.1, "depth": 8.6, "area": 35.7}, "geometry": {"type": "Point", "coordinates": [223.4, 461.2]}}, {"type": "Feature", "properties": {"kind": "building", "bearingDeg": 90.0, "length": 12.9, "depth": 8.6, "area": 44.0}, "geometry": {"type": "Point", "coordinates": [176.6, 102.4]}}, {"type": "Feature", "properties": {"kind": "building", "bearingDeg": 104.0, "length": 13.6, "depth": 5.8, "area": 33.0}, "geometry": {"type": "Point", "coordinates": [177.9, 98.4]}}, {"type": "Feature", "properties": {"kind": "building", "bearingDeg": 26.6, "length": 14.7, "depth": 12.9, "area": 70.5}, "geometry": {"type": "Point", "coordinates": [33.8, -37.9]}}, {"type": "Feature", "properties": {"kind": "building", "bearingDeg": 45.0, "length": 18.3, "depth": 12.1, "area": 75.1}, "geometry": {"type": "Point", "coordinates": [-45.5, 131.6]}}, {"type": "Feature", "properties": {"kind": "building", "bearingDeg": 135.0, "length": 12.1, "depth": 12.1, "area": 65.0}, "geometry": {"type": "Point", "coordinates": [169.9, 86.6]}}, {"type": "Feature", "properties": {"kind": "building", "bearingDeg": 18.4, "length": 11.4, "depth": 9.6, "area": 46.7}, "geometry": {"type": "Point", "coordinates": [32.5, 25.4]}}, {"type": "Feature", "properties": {"kind": "building", "bearingDeg": 119.1, "length": 25.5, "depth": 10.8, "area": 88.8}, "geometry": {"type": "Point", "coordinates": [78.1, 161.4]}}, {"type": "Feature", "properties": {"kind": "building", "bearingDeg": 90.0, "length": 11.6, "depth": 10.1, "area": 50.4}, "geometry": {"type": "Point", "coordinates": [-17.2, 132.5]}}, {"type": "Feature", "properties": {"kind": "building", "bearingDeg": 90.0, "length": 10.1, "depth": 5.7, "area": 33.0}, "geometry": {"type": "Point", "coordinates": [23.4, 15.3]}}, {"type": "Feature", "properties": {"kind": "building", "bearingDeg": 0.0, "length": 12.9, "depth": 8.6, "area": 54.0}, "geometry": {"type": "Point", "coordinates": [25.8, -65.6]}}, {"type": "Feature", "properties": {"kind": "building", "bearingDeg": 63.4, "length": 10.2, "depth": 8.4, "area": 34.8}, "geometry": {"type": "Point", "coordinates": [171.8, 292.8]}}, {"type": "Feature", "properties": {"kind": "building", "bearingDeg": 108.4, "length": 15.5, "depth": 10.1, "area": 59.5}, "geometry": {"type": "Point", "coordinates": [255.8, 257.5]}}, {"type": "Feature", "properties": {"kind": "building", "bearingDeg": 135.0, "length": 14.2, "depth": 8.1, "area": 45.8}, "geometry": {"type": "Point", "coordinates": [60.3, 144.5]}}, {"type": "Feature", "properties": {"kind": "building", "bearingDeg": 135.0, "length": 9.1, "depth": 8.1, "area": 35.7}, "geometry": {"type": "Point", "coordinates": [-24.6, 124.6]}}, {"type": "Feature", "properties": {"kind": "building", "bearingDeg": 56.3, "length": 18.8, "depth": 8.7, "area": 65.0}, "geometry": {"type": "Point", "coordinates": [-35.8, 123.1]}}, {"type": "Feature", "properties": {"kind": "building", "bearingDeg": 90.0, "length": 10.1, "depth": 7.2, "area": 34.8}, "geometry": {"type": "Point", "coordinates": [58.9, 50.2]}}, {"type": "Feature", "properties": {"kind": "building", "bearingDeg": 0.0, "length": 8.6, "depth": 8.6, "area": 34.8}, "geometry": {"type": "Point", "coordinates": [58.4, 44.0]}}, {"type": "Feature", "properties": {"kind": "building", "bearingDeg": 18.4, "length": 9.1, "depth": 8.6, "area": 34.8}, "geometry": {"type": "Point", "coordinates": [61.4, 39.3]}}, {"type": "Feature", "properties": {"kind": "building", "bearingDeg": 15.9, "length": 13.6, "depth": 7.6, "area": 38.5}, "geometry": {"type": "Point", "coordinates": [56.1, 124.6]}}, {"type": "Feature", "properties": {"kind": "building", "bearingDeg": 0.0, "length": 11.6, "depth": 7.2, "area": 36.6}, "geometry": {"type": "Point", "coordinates": [176.6, 112.9]}}, {"type": "Feature", "properties": {"kind": "building", "bearingDeg": 0.0, "length": 10.1, "depth": 8.6, "area": 37.5}, "geometry": {"type": "Point", "coordinates": [25.8, -56.9]}}, {"type": "Feature", "properties": {"kind": "building", "bearingDeg": 135.0, "length": 10.2, "depth": 6.1, "area": 28.4}, "geometry": {"type": "Point", "coordinates": [83.3, 378.9]}}, {"type": "Feature", "properties": {"kind": "building", "bearingDeg": 135.0, "length": 9.1, "depth": 6.1, "area": 26.6}, "geometry": {"type": "Point", "coordinates": [150.0, 261.0]}}, {"type": "Feature", "properties": {"kind": "building", "bearingDeg": 146.3, "length": 12.8, "depth": 4.8, "area": 26.6}, "geometry": {"type": "Point", "coordinates": [262.2, 218.2]}}]}